start=new Date('2022-08-23T00:00:00.000Z').valueOf();
sats=[{"ARG_OF_PERICENTER":"62.7984","LAUNCH_DATE":"2022-05-06","SEMIMAJOR_AXIS":"6917.864","TLE_LINE1":"1 52454U 22049D   22234.91667824 -.00021943  00000-0 -13646-2 0  9996","SITE":"AFETR","NORAD_CAT_ID":"52454","DECAY_DATE":null,"MEAN_ANOMALY":"314.2248","BSTAR":"-0.00136460000000","TIME_SYSTEM":"UTC","REF_FRAME":"TEME","OBJECT_ID":"2022-049D","EPHEMERIS_TYPE":"0","MEAN_ELEMENT_THEORY":"SGP4","TLE_LINE2":"2 52454  53.2184 121.5736 0001771  62.7984 314.2248 15.08845224  1309","CLASSIFICATION_TYPE":"U","OBJECT_TYPE":"PAYLOAD","GP_ID":"210780345","MEAN_MOTION":"15.08845224","PERIAPSIS":"538.504","CENTER_NAME":"EARTH","FILE":"3544179","MEAN_MOTION_DOT":"-0.00021943","APOAPSIS":"540.955","ELEMENT_SET_NO":"999","RA_OF_ASC_NODE":"121.5736","MEAN_MOTION_DDOT":"0.0000000000000","ECCENTRICITY":"0.00017710","RCS_SIZE":"LARGE","PERIOD":"95.437","OBJECT_NAME":"STARLINK-3888","INCLINATION":"53.2184","EPOCH":"2022-08-22T22:00:00.999936","COUNTRY_CODE":"US","REV_AT_EPOCH":"130"},{"OBJECT_NAME":"STARLINK-3890","RCS_SIZE":"LARGE","ECCENTRICITY":"0.00015790","PERIOD":"95.436","REV_AT_EPOCH":"130","COUNTRY_CODE":"US","INCLINATION":"53.2179","EPOCH":"2022-08-22T22:00:00.999936","PERIAPSIS":"538.571","CENTER_NAME":"EARTH","FILE":"3544179","GP_ID":"210779356","OBJECT_TYPE":"PAYLOAD","MEAN_MOTION":"15.08866815","MEAN_MOTION_DDOT":"0.0000000000000","RA_OF_ASC_NODE":"121.5713","ELEMENT_SET_NO":"999","APOAPSIS":"540.756","MEAN_MOTION_DOT":"-0.00026333","MEAN_ELEMENT_THEORY":"SGP4","CLASSIFICATION_TYPE":"U","TLE_LINE2":"2 52455  53.2179 121.5713 0001579  66.1040 345.7334 15.08866815  1300","SITE":"AFETR","NORAD_CAT_ID":"52455","ARG_OF_PERICENTER":"66.1040","TLE_LINE1":"1 52455U 22049E   22234.91667824 -.00026333  00000-0 -16413-2 0  9990","LAUNCH_DATE":"2022-05-06","SEMIMAJOR_AXIS":"6917.798","OBJECT_ID":"2022-049E","REF_FRAME":"TEME","EPHEMERIS_TYPE":"0","DECAY_DATE":null,"BSTAR":"-0.00164130000000","MEAN_ANOMALY":"345.7334","TIME_SYSTEM":"UTC"},{"TIME_SYSTEM":"UTC","DECAY_DATE":null,"MEAN_ANOMALY":"10.7277","BSTAR":"-0.00141400000000","EPHEMERIS_TYPE":"0","REF_FRAME":"TEME","OBJECT_ID":"2022-049F","LAUNCH_DATE":"2022-05-06","SEMIMAJOR_AXIS":"6917.874","TLE_LINE1":"1 52456U 22049F   22234.91667824 -.00022723  00000-0 -14140-2 0  9995","ARG_OF_PERICENTER":"61.1410","SITE":"AFETR","NORAD_CAT_ID":"52456","CLASSIFICATION_TYPE":"U","TLE_LINE2":"2 52456  53.2188 121.5732 0001949  61.1410  10.7277 15.08842056  1305","MEAN_ELEMENT_THEORY":"SGP4","MEAN_MOTION_DOT":"-0.00022723","APOAPSIS":"541.087","ELEMENT_SET_NO":"999","MEAN_MOTION_DDOT":"0.0000000000000","RA_OF_ASC_NODE":"121.5732","MEAN_MOTION":"15.08842056","OBJECT_TYPE":"PAYLOAD","GP_ID":"210779640","FILE":"3544179","PERIAPSIS":"538.391","CENTER_NAME":"EARTH","EPOCH":"2022-08-22T22:00:00.999936","INCLINATION":"53.2188","COUNTRY_CODE":"US","REV_AT_EPOCH":"130","PERIOD":"95.437","ECCENTRICITY":"0.00019490","RCS_SIZE":"LARGE","OBJECT_NAME":"STARLINK-3896"},{"TLE_LINE2":"2 52457  53.2178 121.5718 0001594  72.9783  18.8772 15.08847997  1306","CLASSIFICATION_TYPE":"U","MEAN_ELEMENT_THEORY":"SGP4","OBJECT_ID":"2022-049G","REF_FRAME":"TEME","EPHEMERIS_TYPE":"0","MEAN_ANOMALY":"18.8772","DECAY_DATE":null,"BSTAR":"-0.00137980000000","TIME_SYSTEM":"UTC","SITE":"AFETR","NORAD_CAT_ID":"52457","ARG_OF_PERICENTER":"72.9783","TLE_LINE1":"1 52457U 22049G   22234.91667824 -.00022185  00000-0 -13798-2 0  9996","SEMIMAJOR_AXIS":"6917.856","LAUNCH_DATE":"2022-05-06","REV_AT_EPOCH":"130","COUNTRY_CODE":"US","INCLINATION":"53.2178","EPOCH":"2022-08-22T22:00:00.999936","OBJECT_NAME":"STARLINK-3899","RCS_SIZE":"MEDIUM","ECCENTRICITY":"0.00015940","PERIOD":"95.437","MEAN_MOTION_DDOT":"0.0000000000000","RA_OF_ASC_NODE":"121.5718","ELEMENT_SET_NO":"999","APOAPSIS":"540.824","MEAN_MOTION_DOT":"-0.00022185","PERIAPSIS":"538.618","CENTER_NAME":"EARTH","FILE":"3544179","GP_ID":"210779913","OBJECT_TYPE":"PAYLOAD","MEAN_MOTION":"15.08847997"},{"TLE_LINE2":"2 52458  53.2172 121.5710 0001942  52.4497  59.3914 15.08853350  1303","CLASSIFICATION_TYPE":"U","MEAN_ELEMENT_THEORY":"SGP4","TIME_SYSTEM":"UTC","DECAY_DATE":null,"MEAN_ANOMALY":"59.3914","BSTAR":"-0.00133810000000","EPHEMERIS_TYPE":"0","OBJECT_ID":"2022-049H","REF_FRAME":"TEME","TLE_LINE1":"1 52458U 22049H   22234.91667824 -.00021529  00000-0 -13381-2 0  9996","LAUNCH_DATE":"2022-05-06","SEMIMAJOR_AXIS":"6917.840","ARG_OF_PERICENTER":"52.4497","NORAD_CAT_ID":"52458","SITE":"AFETR","EPOCH":"2022-08-22T22:00:00.999936","INCLINATION":"53.2172","REV_AT_EPOCH":"130","COUNTRY_CODE":"US","PERIOD":"95.437","RCS_SIZE":"LARGE","ECCENTRICITY":"0.00019420","OBJECT_NAME":"STARLINK-3898","ELEMENT_SET_NO":"999","APOAPSIS":"541.048","MEAN_MOTION_DOT":"-0.00021529","RA_OF_ASC_NODE":"121.5710","MEAN_MOTION_DDOT":"0.0000000000000","MEAN_MOTION":"15.08853350","GP_ID":"210780196","OBJECT_TYPE":"PAYLOAD","FILE":"3544179","CENTER_NAME":"EARTH","PERIAPSIS":"538.361"},{"OBJECT_NAME":"STARLINK-3856","PERIOD":"95.437","RCS_SIZE":"LARGE","ECCENTRICITY":"0.00022630","REV_AT_EPOCH":"130","COUNTRY_CODE":"US","EPOCH":"2022-08-22T22:00:00.999936","INCLINATION":"53.2143","FILE":"3544179","CENTER_NAME":"EARTH","PERIAPSIS":"538.162","MEAN_MOTION":"15.08845753","GP_ID":"210779772","OBJECT_TYPE":"PAYLOAD","RA_OF_ASC_NODE":"111.5866","MEAN_MOTION_DDOT":"0.0000000000000","APOAPSIS":"541.293","ELEMENT_SET_NO":"999","MEAN_MOTION_DOT":"-0.00013391","MEAN_ELEMENT_THEORY":"SGP4","TLE_LINE2":"2 52459  53.2143 111.5866 0002263  59.0518 132.9839 15.08845753  1309","CLASSIFICATION_TYPE":"U","NORAD_CAT_ID":"52459","SITE":"AFETR","TLE_LINE1":"1 52459U 22049J   22234.91667824 -.00013391  00000-0 -82466-3 0  9996","LAUNCH_DATE":"2022-05-06","SEMIMAJOR_AXIS":"6917.863","ARG_OF_PERICENTER":"59.0518","EPHEMERIS_TYPE":"0","OBJECT_ID":"2022-049J","REF_FRAME":"TEME","TIME_SYSTEM":"UTC","BSTAR":"-0.00082466000000","DECAY_DATE":null,"MEAN_ANOMALY":"132.9839"},{"DECAY_DATE":null,"MEAN_ANOMALY":"139.3304","BSTAR":"-0.00069172000000","TIME_SYSTEM":"UTC","OBJECT_ID":"2022-049K","REF_FRAME":"TEME","EPHEMERIS_TYPE":"0","ARG_OF_PERICENTER":"67.5473","TLE_LINE1":"1 52460U 22049K   22234.91667824 -.00011283  00000-0 -69172-3 0  9995","SEMIMAJOR_AXIS":"6917.851","LAUNCH_DATE":"2022-05-06","SITE":"AFETR","NORAD_CAT_ID":"52460","TLE_LINE2":"2 52460  53.2154 111.5863 0001754  67.5473 139.3304 15.08849744  1300","CLASSIFICATION_TYPE":"U","MEAN_ELEMENT_THEORY":"SGP4","ELEMENT_SET_NO":"999","APOAPSIS":"540.929","MEAN_MOTION_DOT":"-0.00011283","RA_OF_ASC_NODE":"111.5863","MEAN_MOTION_DDOT":"0.0000000000000","GP_ID":"210780054","OBJECT_TYPE":"PAYLOAD","MEAN_MOTION":"15.08849744","PERIAPSIS":"538.502","CENTER_NAME":"EARTH","FILE":"3544179","INCLINATION":"53.2154","EPOCH":"2022-08-22T22:00:00.999936","REV_AT_EPOCH":"130","COUNTRY_CODE":"US","RCS_SIZE":"LARGE","ECCENTRICITY":"0.00017540","PERIOD":"95.437","OBJECT_NAME":"STARLINK-3865"},{"COUNTRY_CODE":"US","REV_AT_EPOCH":"1707","EPOCH":"2022-08-22T22:00:00.999936","INCLINATION":"53.2139","OBJECT_NAME":"STARLINK-3900","PERIOD":"95.438","ECCENTRICITY":"0.00020090","RCS_SIZE":"LARGE","MEAN_MOTION_DDOT":"0.0000000000000","RA_OF_ASC_NODE":"101.5846","MEAN_MOTION_DOT":"-0.00006764","ELEMENT_SET_NO":"999","APOAPSIS":"541.169","FILE":"3544127","CENTER_NAME":"EARTH","PERIAPSIS":"538.389","MEAN_MOTION":"15.08829088","OBJECT_TYPE":"PAYLOAD","GP_ID":"210753450","CLASSIFICATION_TYPE":"U","TLE_LINE2":"2 52461  53.2139 101.5846 0002009  51.9761 155.0513 15.08829088 17072","MEAN_ELEMENT_THEORY":"SGP4","EPHEMERIS_TYPE":"0","REF_FRAME":"TEME","OBJECT_ID":"2022-049L","TIME_SYSTEM":"UTC","BSTAR":"-0.00040739000000","DECAY_DATE":null,"MEAN_ANOMALY":"155.0513","SITE":"AFETR","NORAD_CAT_ID":"52461","SEMIMAJOR_AXIS":"6917.914","LAUNCH_DATE":"2022-05-06","TLE_LINE1":"1 52461U 22049L   22234.91667824 -.00006764  00000-0 -40739-3 0  9992","ARG_OF_PERICENTER":"51.9761"},{"DECAY_DATE":null,"BSTAR":"-0.00068387000000","MEAN_ANOMALY":"172.4582","TIME_SYSTEM":"UTC","REF_FRAME":"TEME","OBJECT_ID":"2022-049M","EPHEMERIS_TYPE":"0","ARG_OF_PERICENTER":"59.5591","LAUNCH_DATE":"2022-05-06","SEMIMAJOR_AXIS":"6917.889","TLE_LINE1":"1 52462U 22049M   22234.91667824 -.00011155  00000-0 -68387-3 0  9992","SITE":"AFETR","NORAD_CAT_ID":"52462","CLASSIFICATION_TYPE":"U","TLE_LINE2":"2 52462  53.2158 111.5802 0001952  59.5591 172.4582 15.08837260  1307","MEAN_ELEMENT_THEORY":"SGP4","MEAN_MOTION_DOT":"-0.00011155","ELEMENT_SET_NO":"999","APOAPSIS":"541.104","RA_OF_ASC_NODE":"111.5802","MEAN_MOTION_DDOT":"0.0000000000000","OBJECT_TYPE":"PAYLOAD","GP_ID":"210780346","MEAN_MOTION":"15.08837260","PERIAPSIS":"538.403","CENTER_NAME":"EARTH","FILE":"3544179","INCLINATION":"53.2158","EPOCH":"2022-08-22T22:00:00.999936","COUNTRY_CODE":"US","REV_AT_EPOCH":"130","ECCENTRICITY":"0.00019520","RCS_SIZE":"LARGE","PERIOD":"95.438","OBJECT_NAME":"STARLINK-3903"},{"OBJECT_NAME":"STARLINK-3885","ECCENTRICITY":"0.00016950","RCS_SIZE":"MEDIUM","PERIOD":"95.438","COUNTRY_CODE":"US","REV_AT_EPOCH":"1708","INCLINATION":"53.2137","EPOCH":"2022-08-22T22:00:00.999936","CENTER_NAME":"EARTH","PERIAPSIS":"538.608","FILE":"3544117","OBJECT_TYPE":"PAYLOAD","GP_ID":"210753466","MEAN_MOTION":"15.08828479","MEAN_MOTION_DDOT":"0.0000000000000","RA_OF_ASC_NODE":"101.5847","MEAN_MOTION_DOT":"-0.00006689","ELEMENT_SET_NO":"999","APOAPSIS":"540.953","MEAN_ELEMENT_THEORY":"SGP4","CLASSIFICATION_TYPE":"U","TLE_LINE2":"2 52463  53.2137 101.5847 0001695  58.2476 168.7941 15.08828479 17086","SITE":"AFETR","NORAD_CAT_ID":"52463","ARG_OF_PERICENTER":"58.2476","LAUNCH_DATE":"2022-05-06","SEMIMAJOR_AXIS":"6917.916","TLE_LINE1":"1 52463U 22049N   22234.91667824 -.00006689  00000-0 -40265-3 0  9994","REF_FRAME":"TEME","OBJECT_ID":"2022-049N","EPHEMERIS_TYPE":"0","BSTAR":"-0.00040265000000","DECAY_DATE":null,"MEAN_ANOMALY":"168.7941","TIME_SYSTEM":"UTC"}];
